[{"OBJECT_NAME":"STARLINK-31280","OBJECT_ID":"2024-017T","EPOCH":"2026-03-18T23:06:13.153536","MEAN_MOTION":15.30216624,"ECCENTRICITY":0.00015904,"INCLINATION":53.1605,"RA_OF_ASC_NODE":161.4093,"ARG_OF_PERICENTER":87.7391,"MEAN_ANOMALY":272.3792,"EPHEMERIS_TYPE":0,"CLASSIFICATION_TYPE":"U","NORAD_CAT_ID":58843,"ELEMENT_SET_NO":999,"REV_AT_EPOCH":12147,"BSTAR":0.00011771527,"MEAN_MOTION_DOT":3.13e-5,"MEAN_MOTION_DDOT":0},{"OBJECT_NAME":"STARLINK-31269","OBJECT_ID":"2024-017U","EPOCH":"2026-03-19T20:14:04.214976","MEAN_MOTION":15.30195819,"ECCENTRICITY":0.0001406,"INCLINATION":53.1598,"RA_OF_ASC_NODE":247.2845,"ARG_OF_PERICENTER":101.844,"MEAN_ANOMALY":258.2719,"EPHEMERIS_TYPE":0,"CLASSIFICATION_TYPE":"U","NORAD_CAT_ID":58844,"ELEMENT_SET_NO":999,"REV_AT_EPOCH":12032,"BSTAR":-3.9566e-5,"MEAN_MOTION_DOT":-1.531e-5,"MEAN_MOTION_DDOT":0},{"OBJECT_NAME":"STARLINK-31264","OBJECT_ID":"2024-017V","EPOCH":"2026-03-19T17:27:02.234880","MEAN_MOTION":15.30218753,"ECCENTRICITY":5.07e-5,"INCLINATION":53.1593,"RA_OF_ASC_NODE":247.2772,"ARG_OF_PERICENTER":96.155,"MEAN_ANOMALY":263.9509,"EPHEMERIS_TYPE":0,"CLASSIFICATION_TYPE":"U","NORAD_CAT_ID":58845,"ELEMENT_SET_NO":999,"REV_AT_EPOCH":12031,"BSTAR":0.00013112,"MEAN_MOTION_DOT":3.529e-5,"MEAN_MOTION_DDOT":0},{"OBJECT_NAME":"STARLINK-31273","OBJECT_ID":"2024-017W","EPOCH":"2026-03-18T23:10:49.111680","MEAN_MOTION":15.30190143,"ECCENTRICITY":0.00012072,"INCLINATION":53.1574,"RA_OF_ASC_NODE":161.4277,"ARG_OF_PERICENTER":79.6698,"MEAN_ANOMALY":280.4439,"EPHEMERIS_TYPE":0,"CLASSIFICATION_TYPE":"U","NORAD_CAT_ID":58846,"ELEMENT_SET_NO":999,"REV_AT_EPOCH":12147,"BSTAR":3.79561e-6,"MEAN_MOTION_DOT":-2.47e-6,"MEAN_MOTION_DDOT":0},{"OBJECT_NAME":"STARLINK-31262","OBJECT_ID":"2024-017X","EPOCH":"2026-03-19T20:45:49.120704","MEAN_MOTION":15.30193556,"ECCENTRICITY":0.0001536,"INCLINATION":53.1589,"RA_OF_ASC_NODE":246.7154,"ARG_OF_PERICENTER":85.746,"MEAN_ANOMALY":274.3716,"EPHEMERIS_TYPE":0,"CLASSIFICATION_TYPE":"U","NORAD_CAT_ID":58847,"ELEMENT_SET_NO":999,"REV_AT_EPOCH":12033,"BSTAR":0.00012828,"MEAN_MOTION_DOT":3.441e-5,"MEAN_MOTION_DDOT":0},{"OBJECT_NAME":"STARLINK-31238","OBJECT_ID":"2024-019A","EPOCH":"2026-03-19T16:26:42.232128","MEAN_MOTION":15.27620304,"ECCENTRICITY":0.0001971,"INCLINATION":43.0042,"RA_OF_ASC_NODE":192.2522,"ARG_OF_PERICENTER":291.4694,"MEAN_ANOMALY":68.5947,"EPHEMERIS_TYPE":0,"CLASSIFICATION_TYPE":"U","NORAD_CAT_ID":58853,"ELEMENT_SET_NO":999,"REV_AT_EPOCH":12061,"BSTAR":-3.377e-5,"MEAN_MOTION_DOT":-1.193e-5,"MEAN_MOTION_DDOT":0},{"OBJECT_NAME":"STARLINK-31158","OBJECT_ID":"2024-019B","EPOCH":"2026-03-19T07:11:02.442048","MEAN_MOTION":15.27579056,"ECCENTRICITY":5.6e-5,"INCLINATION":43.0022,"RA_OF_ASC_NODE":194.5154,"ARG_OF_PERICENTER":292.6385,"MEAN_ANOMALY":67.4407,"EPHEMERIS_TYPE":0,"CLASSIFICATION_TYPE":"U","NORAD_CAT_ID":58854,"ELEMENT_SET_NO":999,"REV_AT_EPOCH":12055,"BSTAR":-1.0533669e-5,"MEAN_MOTION_DOT":-5.52e-6,"MEAN_MOTION_DDOT":0},{"OBJECT_NAME":"STARLINK-31237","OBJECT_ID":"2024-019C","EPOCH":"2026-03-19T14:45:10.412640","MEAN_MOTION":15.27569099,"ECCENTRICITY":9.3e-5,"INCLINATION":43.0007,"RA_OF_ASC_NODE":192.6033,"ARG_OF_PERICENTER":285.7864,"MEAN_ANOMALY":74.2885,"EPHEMERIS_TYPE":0,"CLASSIFICATION_TYPE":"U","NORAD_CAT_ID":58855,"ELEMENT_SET_NO":999,"REV_AT_EPOCH":12060,"BSTAR":6.0928e-5,"MEAN_MOTION_DOT":1.414e-5,"MEAN_MOTION_DDOT":0},{"OBJECT_NAME":"STARLINK-31244","OBJECT_ID":"2024-019D","EPOCH":"2026-03-19T15:09:13.274496","MEAN_MOTION":15.27585522,"ECCENTRICITY":0.0001288,"INCLINATION":43.0023,"RA_OF_ASC_NODE":192.7156,"ARG_OF_PERICENTER":278.9994,"MEAN_ANOMALY":81.0712,"EPHEMERIS_TYPE":0,"CLASSIFICATION_TYPE":"U","NORAD_CAT_ID":58856,"ELEMENT_SET_NO":999,"REV_AT_EPOCH":12060,"BSTAR":5.3563e-6,"MEAN_MOTION_DOT":-1.15e-6,"MEAN_MOTION_DDOT":0},{"OBJECT_NAME":"STARLINK-31226","OBJECT_ID":"2024-019F","EPOCH":"2026-03-19T18:39:43.932384","MEAN_MOTION":15.27475194,"ECCENTRICITY":0.0001846,"INCLINATION":43.0033,"RA_OF_ASC_NODE":192.0891,"ARG_OF_PERICENTER":295.5485,"MEAN_ANOMALY":64.5175,"EPHEMERIS_TYPE":0,"CLASSIFICATION_TYPE":"U","NORAD_CAT_ID":58858,"ELEMENT_SET_NO":999,"REV_AT_EPOCH":12062,"BSTAR":0.00098747,"MEAN_MOTION_DOT":0.00026924,"MEAN_MOTION_DDOT":0},{"OBJECT_NAME":"STARLINK-31197","OBJECT_ID":"2024-019G","EPOCH":"2026-03-19T14:13:55.073856","MEAN_MOTION":15.27579897,"ECCENTRICITY":0.0001479,"INCLINATION":42.9992,"RA_OF_ASC_NODE":193.28,"ARG_OF_PERICENTER":268.4963,"MEAN_ANOMALY":91.5719,"EPHEMERIS_TYPE":0,"CLASSIFICATION_TYPE":"U","NORAD_CAT_ID":58859,"ELEMENT_SET_NO":999,"REV_AT_EPOCH":12059,"BSTAR":4.9416e-5,"MEAN_MOTION_DOT":1.098e-5,"MEAN_MOTION_DDOT":0},{"OBJECT_NAME":"STARLINK-31213","OBJECT_ID":"2024-019H","EPOCH":"2026-03-19T07:20:18.126240","MEAN_MOTION":15.2757452,"ECCENTRICITY":0.00018095,"INCLINATION":43.0028,"RA_OF_ASC_NODE":194.5692,"ARG_OF_PERICENTER":281.0278,"MEAN_ANOMALY":79.037,"EPHEMERIS_TYPE":0,"CLASSIFICATION_TYPE":"U","NORAD_CAT_ID":58860,"ELEMENT_SET_NO":999,"REV_AT_EPOCH":12055,"BSTAR":-4.5130711e-5,"MEAN_MOTION_DOT":-1.504e-5,"MEAN_MOTION_DDOT":0},{"OBJECT_NAME":"STARLINK-31199","OBJECT_ID":"2024-019J","EPOCH":"2026-03-19T18:13:48.011808","MEAN_MOTION":15.27602594,"ECCENTRICITY":8.3e-6,"INCLINATION":42.9973,"RA_OF_ASC_NODE":191.9604,"ARG_OF_PERICENTER":138.8823,"MEAN_ANOMALY":221.2035,"EPHEMERIS_TYPE":0,"CLASSIFICATION_TYPE":"U","NORAD_CAT_ID":58861,"ELEMENT_SET_NO":999,"REV_AT_EPOCH":12062,"BSTAR":0.0001432,"MEAN_MOTION_DOT":3.684e-5,"MEAN_MOTION_DDOT":0},{"OBJECT_NAME":"STARLINK-31200","OBJECT_ID":"2024-019K","EPOCH":"2026-03-19T15:07:23.080800","MEAN_MOTION":15.27555235,"ECCENTRICITY":0.0001612,"INCLINATION":43.0026,"RA_OF_ASC_NODE":192.7015,"ARG_OF_PERICENTER":313.4191,"MEAN_ANOMALY":46.6526,"EPHEMERIS_TYPE":0,"CLASSIFICATION_TYPE":"U","NORAD_CAT_ID":58862,"ELEMENT_SET_NO":999,"REV_AT_EPOCH":12060,"BSTAR":9.5204e-5,"MEAN_MOTION_DOT":2.356e-5,"MEAN_MOTION_DDOT":0},{"OBJECT_NAME":"STARLINK-31149","OBJECT_ID":"2024-019L","EPOCH":"2026-03-19T16:02:40.330176","MEAN_MOTION":15.27575774,"ECCENTRICITY":0.0001131,"INCLINATION":43.0032,"RA_OF_ASC_NODE":192.1305,"ARG_OF_PERICENTER":262.3457,"MEAN_ANOMALY":97.7266,"EPHEMERIS_TYPE":0,"CLASSIFICATION_TYPE":"U","NORAD_CAT_ID":58863,"ELEMENT_SET_NO":999,"REV_AT_EPOCH":12061,"BSTAR":-3.1196e-5,"MEAN_MOTION_DOT":-1.12e-5,"MEAN_MOTION_DDOT":0},{"OBJECT_NAME":"STARLINK-31242","OBJECT_ID":"2024-019M","EPOCH":"2026-03-19T16:50:46.389984","MEAN_MOTION":15.27582717,"ECCENTRICITY":0.0001476,"INCLINATION":43.0029,"RA_OF_ASC_NODE":192.3839,"ARG_OF_PERICENTER":273.5565,"MEAN_ANOMALY":86.5118,"EPHEMERIS_TYPE":0,"CLASSIFICATION_TYPE":"U","NORAD_CAT_ID":58864,"ELEMENT_SET_NO":999,"REV_AT_EPOCH":12061,"BSTAR":4.8062e-5,"MEAN_MOTION_DOT":1.061e-5,"MEAN_MOTION_DDOT":0}]
