STARLINK-31280          
1 58843U 24017T   26077.96265224  .00003130  00000+0  11772-3 0  9997
2 58843  53.1605 161.4093 0001590  87.7391 272.3792 15.30216624121471
STARLINK-31269          
1 58844U 24017U   26078.84310434 -.00001531  00000+0 -39566-4 0  9997
2 58844  53.1598 247.2845 0001406 101.8440 258.2719 15.30195819120327
STARLINK-31264          
1 58845U 24017V   26078.72710920  .00003529  00000+0  13112-3 0  9994
2 58845  53.1593 247.2772 0000507  96.1550 263.9509 15.30218753120313
STARLINK-31273          
1 58846U 24017W   26077.96584620 -.00000247  00000+0  37956-5 0  9995
2 58846  53.1574 161.4277 0001207  79.6698 280.4439 15.30190143121473
STARLINK-31262          
1 58847U 24017X   26078.86515186  .00003441  00000+0  12828-3 0  9994
2 58847  53.1589 246.7154 0001536  85.7460 274.3716 15.30193556120336
STARLINK-31238          
1 58853U 24019A   26078.68521102 -.00001193  00000+0 -33770-4 0  9992
2 58853  43.0042 192.2522 0001971 291.4694  68.5947 15.27620304120619
STARLINK-31158          
1 58854U 24019B   26078.29933382 -.00000552  00000+0 -10534-4 0  9998
2 58854  43.0022 194.5154 0000560 292.6385  67.4407 15.27579056120556
STARLINK-31237          
1 58855U 24019C   26078.61470385  .00001414  00000+0  60928-4 0  9992
2 58855  43.0007 192.6033 0000930 285.7864  74.2885 15.27569099120609
STARLINK-31244          
1 58856U 24019D   26078.63140364 -.00000115  00000+0  53563-5 0  9992
2 58856  43.0023 192.7156 0001288 278.9994  81.0712 15.27585522120604
STARLINK-31226          
1 58858U 24019F   26078.77759181  .00026924  00000+0  98747-3 0  9998
2 58858  43.0033 192.0891 0001846 295.5485  64.5175 15.27475194120620
STARLINK-31197          
1 58859U 24019G   26078.59299854  .00001098  00000+0  49416-4 0  9990
2 58859  42.9992 193.2800 0001479 268.4963  91.5719 15.27579897120593
STARLINK-31213          
1 58860U 24019H   26078.30576535 -.00001504  00000+0 -45131-4 0  9999
2 58860  43.0028 194.5692 0001809 281.0278  79.0370 15.27574520120555
STARLINK-31199          
1 58861U 24019J   26078.75958347  .00003684  00000+0  14320-3 0  9998
2 58861  42.9973 191.9604 0000083 138.8823 221.2035 15.27602594120625
STARLINK-31200          
1 58862U 24019K   26078.63012825  .00002356  00000+0  95204-4 0  9994
2 58862  43.0026 192.7015 0001612 313.4191  46.6526 15.27555235120601
STARLINK-31149          
1 58863U 24019L   26078.66852234 -.00001120  00000+0 -31196-4 0  9994
2 58863  43.0032 192.1305 0001131 262.3457  97.7266 15.27575774120617
STARLINK-31242          
1 58864U 24019M   26078.70192581  .00001061  00000+0  48062-4 0  9994
2 58864  43.0029 192.3839 0001476 273.5565  86.5118 15.27582717120611
